NORAD_CAT_ID,OBJECT_NAME,OBJECT_TYPE,EPOCH,MEAN_MOTION,ECCENTRICITY,INCLINATION,RA_OF_ASC_NODE,ARG_OF_PERICENTER,MEAN_ANOMALY,BSTAR,MEAN_MOTION_DOT,MEAN_MOTION_DDOT,TLE_LINE0,TLE_LINE1,TLE_LINE2,SEMIMAJOR_AXIS,PERIOD,APOGEE,PERIGEE,DECAYED
27216,PSLV DEB,DEBRIS,2021-09-28 00:19:22,15.05291449,0.0030863,98.234,296.1141,350.3211,34.9918,0.00026071,3.695e-05,0.0,0 PSLV DEB,1 27216U 01049FL  21271.01344918  .00003695  00000-0  26071-3 0  9997,2 27216  98.2340 296.1141 0030863 350.3211  34.9918 15.05291449 72446,6928.748000000001,95.663,571.997,529.229,0.0
27216,PSLV DEB,DEBRIS,2021-09-28 08:14:26,15.05293397,0.0030821,98.2341,296.4658,349.2709,22.7419,0.00025608,3.628e-05,0.0,0 PSLV DEB,1 27216U 01049FL  21271.34336029  .00003628  00000-0  25608-3 0  9998,2 27216  98.2341 296.4658 0030821 349.2709  22.7419 15.05293397 72508,6928.7419999999975,95.662,571.962,529.252,0.0
27216,PSLV DEB,DEBRIS,2021-09-29 08:10:01,15.05300104,0.0030705,98.2342,297.5289,346.0274,25.0781,0.00025097,3.555e-05,0.0,0 PSLV DEB,1 27216U 01049FL  21272.34028984  .00003555  00000-0  25097-3 0  9998,2 27216  98.2342 297.5289 0030705 346.0274  25.0781 15.05300104 72642,6928.722,95.662,571.861,529.312,0.0
27216,PSLV DEB,DEBRIS,2021-09-30 00:21:44,15.05304994,0.0030628,98.2341,298.2486,343.8065,81.8658,0.00025719,3.645e-05,0.0,0 PSLV DEB,1 27216U 01049FL  21273.01509437  .00003645  00000-0  25719-3 0  9991,2 27216  98.2341 298.2486 0030628 343.8065  81.8658 15.05304994 72751,6928.7069999999985,95.662,571.793,529.35,0.0
27216,PSLV DEB,DEBRIS,2021-10-01 08:02:00,15.05316099,0.0030469,98.234,299.6559,339.3936,33.0972,0.00029061,4.129e-05,0.0,0 PSLV DEB,1 27216U 01049FL  21274.33472549  .00004129  00000-0  29061-3 0  9992,2 27216  98.2340 299.6559 0030469 339.3936  33.0972 15.05316099 72944,6928.6730000000025,95.661,571.649,529.427,0.0
27216,PSLV DEB,DEBRIS,2021-10-01 13:26:01,15.05316948,0.0030421,98.2341,299.8959,338.6925,172.4124,0.00028559,4.057e-05,0.0,0 PSLV DEB,1 27216U 01049FL  21274.55973726  .00004057  00000-0  28559-3 0  9990,2 27216  98.2341 299.8959 0030421 338.6925 172.4124 15.05316948 72983,6928.67,95.661,571.613,529.457,0.0
27216,PSLV DEB,DEBRIS,2021-10-01 21:17:14,15.05319328,0.003038,98.2339,300.2449,337.5921,145.7361,0.00028556,4.056e-05,0.0,0 PSLV DEB,1 27216U 01049FL  21274.88696937  .00004056  00000-0  28556-3 0  9998,2 27216  98.2339 300.2449 0030380 337.5921 145.7361 15.05319328 73037,6928.663000000001,95.661,571.577,529.4780000000002,0.0
27216,PSLV DEB,DEBRIS,2021-10-02 13:21:56,15.05323204,0.0030304999999999998,98.2338,300.9593,335.3125,176.2619,0.00024774,3.509e-05,0.0,0 PSLV DEB,1 27216U 01049FL  21275.55690549  .00003509  00000-0  24774-3 0  9996,2 27216  98.2338 300.9593 0030305 335.3125 176.2619 15.05323204 73136,6928.651,95.661,571.513,529.518,0.0
27216,PSLV DEB,DEBRIS,2021-10-02 19:50:37,15.05325921,0.0030287,98.2337,301.2472,334.3673,199.0633,0.00026438,3.75e-05,0.0,0 PSLV DEB,1 27216U 01049FL  21275.82682832  .00003750  00000-0  26438-3 0  9999,2 27216  98.2337 301.2472 0030287 334.3673 199.0633 15.05325921 73172,6928.642,95.66,571.492,529.523,0.0
27216,PSLV DEB,DEBRIS,2021-10-03 07:53:32,15.05328169,0.0030235,98.2335,301.7826,332.6412,39.6598,0.00021477,3.033e-05,0.0,0 PSLV DEB,1 27216U 01049FL  21276.32885088  .00003033  00000-0  21477-3 0  9995,2 27216  98.2335 301.7826 0030235 332.6412  39.6598 15.05328169 73258,6928.6359999999995,95.66,571.4490000000002,529.552,0.0
27216,PSLV DEB,DEBRIS,2021-10-04 01:39:40,15.05333193,0.0030169,98.23299999999999,302.5722,330.0502,91.9761,0.00020672,2.916e-05,0.0,0 PSLV DEB,1 27216U 01049FL  21277.06921986  .00002916  00000-0  20672-3 0  9990,2 27216  98.2330 302.5722 0030169 330.0502  91.9761 15.05333193 73363,6928.62,95.66,571.388,529.582,0.0
27216,PSLV DEB,DEBRIS,2021-10-04 07:49:19,15.05334861,0.0030144,98.2329,302.846,329.1529,43.113,0.00020731,2.925e-05,0.0,0 PSLV DEB,1 27216U 01049FL  21277.32591782  .00002925  00000-0  20731-3 0  9992,2 27216  98.2329 302.8460 0030144 329.1529  43.1130 15.05334861 73401,6928.615,95.66,571.366,529.594,0.0
27216,PSLV DEB,DEBRIS,2021-10-05 07:59:33,15.05339655,0.0030089,98.2323,303.9199,325.5676,101.0534,0.00017487,2.456e-05,0.0,0 PSLV DEB,1 27216U 01049FL  21278.33302410  .00002456  00000-0  17487-3 0  9995,2 27216  98.2323 303.9199 0030089 325.5676 101.0534 15.05339655 73551,6928.6,95.65899999999999,571.313,529.618,0.0
27216,PSLV DEB,DEBRIS,2021-10-06 07:54:51,15.05343235,0.0030085999999999997,98.2319,304.9827,321.9323,102.8874,0.00013827,1.926e-05,0.0,0 PSLV DEB,1 27216U 01049FL  21279.32975875  .00001926  00000-0  13827-3 0  9991,2 27216  98.2319 304.9827 0030086 321.9323 102.8874 15.05343235 73703,6928.589,95.65899999999999,571.3,529.609,0.0
27216,PSLV DEB,DEBRIS,2021-10-07 01:26:00,15.05347347,0.00301,98.2316,305.7608,319.3301,98.9437,0.00015842,2.218e-05,0.0,0 PSLV DEB,1 27216U 01049FL  21280.05973059  .00002218  00000-0  15842-3 0  9999,2 27216  98.2316 305.7608 0030100 319.3301  98.9437 15.05347347 73810,6928.5769999999975,95.65899999999999,571.297,529.587,0.0
27216,PSLV DEB,DEBRIS,2021-10-07 07:50:24,15.05348619,0.0030087,98.2316,306.0454,318.3862,105.5973,0.00016237,2.275e-05,0.0,0 PSLV DEB,1 27216U 01049FL  21280.32666847  .00002275  00000-0  16237-3 0  9995,2 27216  98.2316 306.0454 0030087 318.3862 105.5973 15.05348619 73855,6928.573,95.65899999999999,571.284,529.592,0.0
27216,PSLV DEB,DEBRIS,2021-10-07 14:29:38,15.05350195,0.0030061999999999997,98.2312,306.3409,317.4508,168.1181,0.00016595,2.327e-05,0.0,0 PSLV DEB,1 27216U 01049FL  21280.60392269  .00002327  00000-0  16595-3 0  9995,2 27216  98.2312 306.3409 0030062 317.4508 168.1181 15.05350195 73896,6928.568,95.65899999999999,571.262,529.604,0.0
27216,PSLV DEB,DEBRIS,2021-10-08 07:46:14,15.05353725,0.0030050999999999997,98.23100000000001,307.1083,314.9058,109.3201,0.00017334,2.435e-05,0.0,0 PSLV DEB,1 27216U 01049FL  21281.32377409  .00002435  00000-0  17334-3 0  9996,2 27216  98.2310 307.1083 0030051 314.9058 109.3201 15.05353725 74007,6928.557,95.65899999999999,571.243,529.601,0.0
27216,PSLV DEB,DEBRIS,2021-10-09 01:16:22,15.05357545,0.0030038,98.2315,307.8864,312.3066,101.5832,0.00018140000000000002,2.551e-05,0.0,0 PSLV DEB,1 27216U 01049FL  21282.05304157  .00002551  00000-0  18140-3 0  9992,2 27216  98.2315 307.8864 0030038 312.3066 101.5832 15.05357545 74112,6928.545,95.65799999999999,571.222,529.5980000000002,0.0
27216,PSLV DEB,DEBRIS,2021-10-10 01:12:05,15.0536332,0.0030055,98.2307,308.9486,308.7597,104.9809,0.00020385,2.877e-05,0.0,0 PSLV DEB,1 27216U 01049FL  21283.05006943  .00002877  00000-0  20385-3 0  9990,2 27216  98.2307 308.9486 0030055 308.7597 104.9809 15.05363320 74267,6928.528,95.65799999999999,571.216,529.569,0.0
27216,PSLV DEB,DEBRIS,2021-10-10 07:37:27,15.05368394,0.0030055999999999998,98.2309,309.2339,307.7953,115.2994,0.00029059,4.134e-05,0.0,0 PSLV DEB,1 27216U 01049FL  21283.31767743  .00004134  00000-0  29059-3 0  9996,2 27216  98.2309 309.2339 0030056 307.7953 115.2994 15.05368394 74307,6928.512,95.65799999999999,571.201,529.553,0.0
27216,PSLV DEB,DEBRIS,2021-10-11 07:32:49,15.05376386,0.0030083,98.2312,310.2966,304.3665,117.2731,0.0003323,4.739e-05,0.0,0 PSLV DEB,1 27216U 01049FL  21284.31445781  .00004739  00000-0  33230-3 0  9999,2 27216  98.2312 310.2966 0030083 304.3665 117.2731 15.05376386 74459,6928.488,95.65700000000001,571.196,529.51,0.0
27216,PSLV DEB,DEBRIS,2021-10-12 07:28:22,15.05381,0.003005,98.2313,311.3593,300.8945,120.0093,0.00031407,4.475e-05,0.0,0 PSLV DEB,1 27216U 01049FL  21285.31136897  .00004475  00000-0  31407-3 0  9996,2 27216  98.2313 311.3593 0030050 300.8945 120.0093 15.05381000 74603,6928.473000000001,95.65700000000001,571.158,529.518,0.0
27216,PSLV DEB,DEBRIS,2021-10-13 07:23:57,15.05389953,0.0030071,98.2316,312.422,297.3521,122.9702,0.00034555,4.933e-05,0.0,0 PSLV DEB,1 27216U 01049FL  21286.30830039  .00004933  00000-0  34555-3 0  9991,2 27216  98.2316 312.4220 0030071 297.3521 122.9702 15.05389953 74757,6928.446,95.656,571.145,529.476,0.0
27216,PSLV DEB,DEBRIS,2021-10-14 00:48:45,15.05395236,0.0030066,98.2319,313.1957,294.8501,95.1224,0.00029491,4.199e-05,0.0,0 PSLV DEB,1 27216U 01049FL  21287.03385465  .00004199  00000-0  29491-3 0  9997,2 27216  98.2319 313.1957 0030066 294.8501  95.1224 15.05395236 74862,6928.43,95.656,571.126,529.464,0.0
27216,PSLV DEB,DEBRIS,2021-10-15 00:44:31,15.05403013,0.0030011,98.23200000000001,314.2588,291.4013,98.7585,0.00025626,3.64e-05,0.0,0 PSLV DEB,1 27216U 01049FL  21288.03091782  .00003640  00000-0  25626-3 0  9990,2 27216  98.2320 314.2588 0030011 291.4013  98.7585 15.05403013 75017,6928.406,95.655,571.064,529.4780000000002,0.0
27216,PSLV DEB,DEBRIS,2021-10-16 00:47:28,15.05410616,0.0029819000000000004,98.2318,315.3271,287.8979,129.4837,0.00023911,3.391e-05,0.0,0 PSLV DEB,1 27216U 01049FL  21289.03296655  .00003391  00000-0  23911-3 0  9995,2 27216  98.2318 315.3271 0029819 287.8979 129.4837 15.05410616 75164,6928.3830000000025,95.655,570.9069999999998,529.5880000000002,0.0
27216,PSLV DEB,DEBRIS,2021-10-17 21:44:23,15.05422292,0.0029704,98.2318,317.3244,281.385,199.6721,0.00021755,3.079e-05,0.0,0 PSLV DEB,1 27216U 01049FL  21290.90582240  .00003079  00000-0  21755-3 0  9998,2 27216  98.2318 317.3244 0029704 281.3850 199.6721 15.05422292 75441,6928.347,95.654,570.7919999999998,529.632,0.0
27216,PSLV DEB,DEBRIS,2021-10-18 00:31:37,15.054232800000001,0.0029706999999999997,98.2318,317.4481,281.0002,109.0891,0.00022101,3.13e-05,0.0,0 PSLV DEB,1 27216U 01049FL  21291.02196191  .00003130  00000-0  22101-3 0  9992,2 27216  98.2318 317.4481 0029707 281.0002 109.0891 15.05423280 75467,6928.344,95.654,570.7909999999998,529.627,0.0
27216,PSLV DEB,DEBRIS,2021-10-18 13:50:01,15.05427771,0.0029619,98.2315,318.0395,279.0895,233.9905,0.00024076,3.416e-05,0.0,0 PSLV DEB,1 27216U 01049FL  21291.57640924  .00003416  00000-0  24076-3 0  9990,2 27216  98.2315 318.0395 0029619 279.0895 233.9905 15.05427771 75545,6928.33,95.654,570.716,529.674,0.0
